[{"OBJECT_NAME":"HAWK-2C","OBJECT_ID":"2021-006CT","EPOCH":"2026-03-09T16:13:22.454976","MEAN_MOTION":15.33286436,"ECCENTRICITY":0.0006943,"INCLINATION":97.2417,"RA_OF_ASC_NODE":114.9961,"ARG_OF_PERICENTER":184.0877,"MEAN_ANOMALY":176.031,"EPHEMERIS_TYPE":0,"CLASSIFICATION_TYPE":"U","NORAD_CAT_ID":47502,"ELEMENT_SET_NO":999,"REV_AT_EPOCH":28424,"BSTAR":0.00025492914,"MEAN_MOTION_DOT":8.129e-5,"MEAN_MOTION_DDOT":0},{"OBJECT_NAME":"STARLINK-35862","OBJECT_ID":"2025-271M","EPOCH":"2026-03-09T11:27:43.364736","MEAN_MOTION":15.30197618,"ECCENTRICITY":7.934e-5,"INCLINATION":53.1564,"RA_OF_ASC_NODE":140.9573,"ARG_OF_PERICENTER":90.6009,"MEAN_ANOMALY":269.5083,"EPHEMERIS_TYPE":0,"CLASSIFICATION_TYPE":"U","NORAD_CAT_ID":66628,"ELEMENT_SET_NO":999,"REV_AT_EPOCH":1753,"BSTAR":0.00060038737,"MEAN_MOTION_DOT":0.00017463,"MEAN_MOTION_DDOT":0}]
